$$SOE
2460147.500000000, A.D. 2023-Jul-22 00:00:00.0000, 4.342605888993401E+08, 6.290601723612735E+06, 5.951028455661971E+07,
2460154.500000000, A.D. 2023-Jul-29 00:00:00.0000, 4.342214635061997E+08, 1.651361792886295E+07, 6.142359617413314E+07,
2460161.500000000, A.D. 2023-Aug-05 00:00:00.0000, 4.339329986894862E+08, 2.672734053414361E+07, 6.330158663351690E+07,
2460168.500000000, A.D. 2023-Aug-12 00:00:00.0000, 4.333961821455500E+08, 3.692595699904564E+07, 6.514329507406048E+07,
2460175.500000000, A.D. 2023-Aug-19 00:00:00.0000, 4.326121278011910E+08, 4.710370044683371E+07, 6.694778614327238E+07,
2460182.500000000, A.D. 2023-Aug-26 00:00:00.0000, 4.315820736151881E+08, 5.725485188472492E+07, 6.871415011020480E+07,
2460189.500000000, A.D. 2023-Sep-02 00:00:00.0000, 4.303073793622596E+08, 6.737374226669952E+07, 7.044150295994547E+07,
2460196.500000000, A.D. 2023-Sep-09 00:00:00.0000, 4.287895244390272E+08, 7.745475435930240E+07, 7.212898646362351E+07,
2460203.500000000, A.D. 2023-Sep-16 00:00:00.0000, 4.270301058623409E+08, 8.749232435360035E+07, 7.377576820435166E+07,
2460210.500000000, A.D. 2023-Sep-23 00:00:00.0000, 4.250308368764328E+08, 9.748094351112264E+07, 7.538104154412574E+07,
2460217.500000000, A.D. 2023-Sep-30 00:00:00.0000, 4.227935458273131E+08, 1.074151610374165E+08, 7.694402565937191E+07,
2460224.500000000, A.D. 2023-Oct-07 00:00:00.0000, 4.203201729510489E+08, 1.172895876465208E+08, 7.846396581735672E+07,
2460231.500000000, A.D. 2023-Oct-14 00:00:00.0000, 4.176127661206717E+08, 1.270988965079420E+08, 7.994013352947509E+07,
2460238.500000000, A.D. 2023-Oct-21 00:00:00.0000, 4.146734787831582E+08, 1.368378231809750E+08, 8.137182641744563E+07,
2460245.500000000, A.D. 2023-Oct-28 00:00:00.0000, 4.115045686630787E+08, 1.465011667994140E+08, 8.275836810865408E+07,
2460252.500000000, A.D. 2023-Nov-04 00:00:00.0000, 4.081083959847001E+08, 1.560837917395608E+08, 8.409910821367300E+07,
2460259.500000000, A.D. 2023-Nov-11 00:00:00.0000, 4.044874213920245E+08, 1.655806291745324E+08, 8.539342232194918E+07,
2460266.500000000, A.D. 2023-Nov-18 00:00:00.0000, 4.006442037877342E+08, 1.749866784532189E+08, 8.664071199139908E+07,
2460273.500000000, A.D. 2023-Nov-25 00:00:00.0000, 3.965813981649711E+08, 1.842970083290302E+08, 8.784040472807576E+07,
2460280.500000000, A.D. 2023-Dec-02 00:00:00.0000, 3.923017534609736E+08, 1.935067580297657E+08, 8.899195395329070E+07,
2460287.500000000, A.D. 2023-Dec-09 00:00:00.0000, 3.878081105111357E+08, 2.026111381122619E+08, 9.009483894703567E+07,
2460294.500000000, A.D. 2023-Dec-16 00:00:00.0000, 3.831034003919035E+08, 2.116054311167504E+08, 9.114856474305061E+07,
2460301.500000000, A.D. 2023-Dec-23 00:00:00.0000, 3.781906435012906E+08, 2.204849927098013E+08, 9.215266199987584E+07,
2460308.500000000, A.D. 2023-Dec-30 00:00:00.0000, 3.730729480348169E+08, 2.292452543665215E+08, 9.310668705588454E+07,
2460315.500000000, A.D. 2024-Jan-06 00:00:00.0000, 3.677535060832336E+08, 2.378817252355599E+08, 9.401022213837525E+07,
2460322.500000000, A.D. 2024-Jan-13 00:00:00.0000, 3.622355905273471E+08, 2.463899913836049E+08, 9.486287528933075E+07,
2460329.500000000, A.D. 2024-Jan-20 00:00:00.0000, 3.565225539538736E+08, 2.547657155047447E+08, 9.566428014736417E+07,
2460336.500000000, A.D. 2024-Jan-27 00:00:00.0000, 3.506178275619442E+08, 2.630046377485798E+08, 9.641409582464628E+07,
2460343.500000000, A.D. 2024-Feb-03 00:00:00.0000, 3.445249196311200E+08, 2.711025767210419E+08, 9.711200684057538E+07,
2460350.500000000, A.D. 2024-Feb-10 00:00:00.0000, 3.382474138280003E+08, 2.790554303692118E+08, 9.775772306307167E+07,
2460357.500000000, A.D. 2024-Feb-17 00:00:00.0000, 3.317889674897843E+08, 2.868591767602470E+08, 9.835097964549246E+07,
2460364.500000000, A.D. 2024-Feb-24 00:00:00.0000, 3.251533099202569E+08, 2.945098747712950E+08, 9.889153695712899E+07,
2460371.500000000, A.D. 2024-Mar-02 00:00:00.0000, 3.183442407269928E+08, 3.020036646599576E+08, 9.937918050201428E+07,
2460378.500000000, A.D. 2024-Mar-09 00:00:00.0000, 3.113656283381000E+08, 3.093367684546664E+08, 9.981372080836062E+07,
2460385.500000000, A.D. 2024-Mar-16 00:00:00.0000, 3.042214090937849E+08, 3.165054903644632E+08, 1.001949932688204E+08,
2460392.500000000, A.D. 2024-Mar-23 00:00:00.0000, 2.969155868092352E+08, 3.235062183182714E+08, 1.005228580316024E+08,
2460399.500000000, A.D. 2024-Mar-30 00:00:00.0000, 2.894522305653295E+08, 3.303354266069067E+08, 1.007972001448766E+08,
2460406.500000000, A.D. 2024-Apr-06 00:00:00.0000, 2.818354709807958E+08, 3.369896762634882E+08, 1.010179296562043E+08,
2460413.500000000, A.D. 2024-Apr-13 00:00:00.0000, 2.740694985185020E+08, 3.434656140223406E+08, 1.011849814109749E+08,
2460420.500000000, A.D. 2024-Apr-20 00:00:00.0000, 2.661585628739320E+08, 3.497599725335298E+08, 1.012983148557508E+08,
2460427.500000000, A.D. 2024-Apr-27 00:00:00.0000, 2.581069719272284E+08, 3.558695712725334E+08, 1.013579139395390E+08,
2460434.500000000, A.D. 2024-May-04 00:00:00.0000, 2.499190903457663E+08, 3.617913174434834E+08, 1.013637870477494E+08,
2460441.500000000, A.D. 2024-May-11 00:00:00.0000, 2.415993380752538E+08, 3.675222067758983E+08, 1.013159669390432E+08,
2460448.500000000, A.D. 2024-May-18 00:00:00.0000, 2.331521888011127E+08, 3.730593242376994E+08, 1.012145106794936E+08,
2460455.500000000, A.D. 2024-May-25 00:00:00.0000, 2.245821684043197E+08, 3.783998446578524E+08, 1.010594995710064E+08,
2460462.500000000, A.D. 2024-Jun-01 00:00:00.0000, 2.158938534702075E+08, 3.835410332011772E+08, 1.008510390632573E+08,
2460469.500000000, A.D. 2024-Jun-08 00:00:00.0000, 2.070918700942832E+08, 3.884802456727104E+08, 1.005892586241501E+08,
2460476.500000000, A.D. 2024-Jun-15 00:00:00.0000, 1.981808933822452E+08, 3.932149291983274E+08, 1.002743115768373E+08,
2460483.500000000, A.D. 2024-Jun-22 00:00:00.0000, 1.891656466376638E+08, 3.977426244584084E+08, 9.990637509202656E+07,
2460490.500000000, A.D. 2024-Jun-29 00:00:00.0000, 1.800508981132230E+08, 4.020609676540341E+08, 9.948565038154921E+07,
2460497.500000000, A.D. 2024-Jul-06 00:00:00.0000, 1.708414579681341E+08, 4.061676897380705E+08, 9.901236265025982E+07,
2460504.500000000, A.D. 2024-Jul-13 00:00:00.0000, 1.615421773826997E+08, 4.100606157391342E+08, 9.848676086014605E+07,
2460511.500000000, A.D. 2024-Jul-20 00:00:00.0000, 1.521579478451896E+08, 4.137376653268656E+08, 9.790911758255821E+07,
2460518.500000000, A.D. 2024-Jul-27 00:00:00.0000, 1.426936999536035E+08, 4.171968536582801E+08, 9.727972891977623E+07,
2460525.500000000, A.D. 2024-Aug-03 00:00:00.0000, 1.331544020035234E+08, 4.204362921303092E+08, 9.659891443990862E+07,
2460532.500000000, A.D. 2024-Aug-10 00:00:00.0000, 1.235450585261377E+08, 4.234541890344541E+08, 9.586701710925615E+07,
2460539.500000000, A.D. 2024-Aug-17 00:00:00.0000, 1.138707088220398E+08, 4.262488501357623E+08, 9.508440321926618E+07,
2460546.500000000, A.D. 2024-Aug-24 00:00:00.0000, 1.041364255168569E+08, 4.288186791544141E+08, 9.425146230338311E+07,
2460553.500000000, A.D. 2024-Aug-31 00:00:00.0000, 9.434731325244920E+07, 4.311621780890125E+08, 9.336860702786681E+07,
2460560.500000000, A.D. 2024-Sep-07 00:00:00.0000, 8.450850787720260E+07, 4.332779475088148E+08, 9.243627303320536E+07,
2460567.500000000, A.D. 2024-Sep-14 00:00:00.0000, 7.462517621916202E+07, 4.351646878122961E+08, 9.145491879974642E+07,
2460574.500000000, A.D. 2024-Sep-21 00:00:00.0000, 6.470251441282192E+07, 4.368212018648677E+08, 9.042502575693965E+07,
2460581.500000000, A.D. 2024-Sep-28 00:00:00.0000, 5.474574428978539E+07, 4.382463957853459E+08, 8.934709841588122E+07,
2460588.500000000, A.D. 2024-Oct-05 00:00:00.0000, 4.476011149879530E+07, 4.394392778836326E+08, 8.822166418886638E+07,
2460595.500000000, A.D. 2024-Oct-12 00:00:00.0000, 3.475088499359886E+07, 4.403989587325541E+08, 8.704927317321619E+07,
2460602.500000000, A.D. 2024-Oct-19 00:00:00.0000, 2.472335613702846E+07, 4.411246521025930E+08, 8.583049803737211E+07,
2460609.500000000, A.D. 2024-Oct-26 00:00:00.0000, 1.468283738685085E+07, 4.416156759572322E+08, 8.456593394625089E+07,
2460616.500000000, A.D. 2024-Nov-02 00:00:00.0000, 4.634660818580206E+06, 4.418714533603761E+08, 8.325619848992181E+07,
2460623.500000000, A.D. 2024-Nov-09 00:00:00.0000, -5.415823420077578E+06, 4.418915133166279E+08, 8.190193160829359E+07,
2460630.500000000, A.D. 2024-Nov-16 00:00:00.0000, -1.546324869908028E+07, 4.416754915447138E+08, 8.050379550930217E+07,
2460637.500000000, A.D. 2024-Nov-23 00:00:00.0000, -2.550223349509322E+07, 4.412231311340498E+08, 7.906247457203719E+07,
2460644.500000000, A.D. 2024-Nov-30 00:00:00.0000, -3.552738277332583E+07, 4.405342830415624E+08, 7.757867521202722E+07,
2460651.500000000, A.D. 2024-Dec-07 00:00:00.0000, -4.553328874482111E+07, 4.396089068493538E+08, 7.605312570447758E+07,
2460658.500000000, A.D. 2024-Dec-14 00:00:00.0000, -5.551453168956007E+07, 4.384470730080389E+08, 7.448657612867981E+07,
2460665.500000000, A.D. 2024-Dec-21 00:00:00.0000, -6.546568316390648E+07, 4.370489653244697E+08, 7.287979854433221E+07,
2460672.500000000, A.D. 2024-Dec-28 00:00:00.0000, -7.538130962123214E+07, 4.354148807219832E+08, 7.123358697509703E+07,
2460679.500000000, A.D. 2025-Jan-04 00:00:00.0000, -8.525597385279275E+07, 4.335452286480533E+08, 6.954875715523201E+07,
2460686.500000000, A.D. 2025-Jan-11 00:00:00.0000, -9.508423607202822E+07, 4.314405317904627E+08, 6.782614634211251E+07,
2460693.500000000, A.D. 2025-Jan-18 00:00:00.0000, -1.048606555602021E+08, 4.291014271817349E+08, 6.606661320311689E+07,
2460700.500000000, A.D. 2025-Jan-25 00:00:00.0000, -1.145797926316858E+08, 4.265286672152535E+08, 6.427103771529135E+07,
2460707.500000000, A.D. 2025-Feb-01 00:00:00.0000, -1.242362107309354E+08, 4.237231205412707E+08, 6.244032105759251E+07,
2460714.500000000, A.D. 2025-Feb-08 00:00:00.0000, -1.338244786037686E+08, 4.206857728602590E+08, 6.057538549143451E+07,
2460721.500000000, A.D. 2025-Feb-15 00:00:00.0000, -1.433391725152973E+08, 4.174177275903636E+08, 5.867717422457525E+07,
$$EOE